[{"OBJECT_NAME":"YAOGAN-43 01G","OBJECT_ID":"2024-148G","EPOCH":"2026-03-09T10:38:37.087584","MEAN_MOTION":15.28332833,"ECCENTRICITY":0.00073829,"INCLINATION":35.0006,"RA_OF_ASC_NODE":62.0013,"ARG_OF_PERICENTER":306.3543,"MEAN_ANOMALY":53.6492,"EPHEMERIS_TYPE":0,"CLASSIFICATION_TYPE":"U","NORAD_CAT_ID":60464,"ELEMENT_SET_NO":999,"REV_AT_EPOCH":8700,"BSTAR":0.00035872736,"MEAN_MOTION_DOT":0.00010133,"MEAN_MOTION_DDOT":0},{"OBJECT_NAME":"STARLINK-35651","OBJECT_ID":"2025-257G","EPOCH":"2026-03-09T16:02:32.878176","MEAN_MOTION":15.30196171,"ECCENTRICITY":6.943e-5,"INCLINATION":53.16,"RA_OF_ASC_NODE":216.8789,"ARG_OF_PERICENTER":123.2496,"MEAN_ANOMALY":236.8572,"EPHEMERIS_TYPE":0,"CLASSIFICATION_TYPE":"U","NORAD_CAT_ID":66386,"ELEMENT_SET_NO":999,"REV_AT_EPOCH":1973,"BSTAR":0.00063435779,"MEAN_MOTION_DOT":0.00018473,"MEAN_MOTION_DDOT":0}]
